CCSDS_OMM_VERS = 2.0
CREATION_DATE  = 
ORIGINATOR     = 

OBJECT_NAME    = SL-14 R/B
OBJECT_ID      = 1986-046B
CENTER_NAME    = EARTH
REF_FRAME      = TEME
TIME_SYSTEM    = UTC
MEAN_ELEMENT_THEORY = SGP/SGP4

EPOCH          = 2026-03-08T02:57:46.071360
MEAN_MOTION    = 14.85588860
ECCENTRICITY   = .0021866
INCLINATION    = 82.4782
RA_OF_ASC_NODE = 81.6620
ARG_OF_PERICENTER = 230.7923
MEAN_ANOMALY   = 129.1353

EPHEMERIS_TYPE = 0
CLASSIFICATION_TYPE = U
NORAD_CAT_ID   = 16792
ELEMENT_SET_NO = 999
REV_AT_EPOCH   = 12617
BSTAR          = .71959E-4
MEAN_MOTION_DOT = .649E-5
MEAN_MOTION_DDOT = 0

CCSDS_OMM_VERS = 2.0
CREATION_DATE  = 
ORIGINATOR     = 

OBJECT_NAME    = SL-14 R/B
OBJECT_ID      = 1986-055B
CENTER_NAME    = EARTH
REF_FRAME      = TEME
TIME_SYSTEM    = UTC
MEAN_ELEMENT_THEORY = SGP/SGP4

EPOCH          = 2026-03-08T02:52:02.614944
MEAN_MOTION    = 14.85641381
ECCENTRICITY   = .0018309
INCLINATION    = 82.5204
RA_OF_ASC_NODE = 128.1501
ARG_OF_PERICENTER = 341.9469
MEAN_ANOMALY   = 81.4658

EPHEMERIS_TYPE = 0
CLASSIFICATION_TYPE = U
NORAD_CAT_ID   = 16882
ELEMENT_SET_NO = 999
REV_AT_EPOCH   = 11913
BSTAR          = .69185E-4
MEAN_MOTION_DOT = .625E-5
MEAN_MOTION_DDOT = 0

CCSDS_OMM_VERS = 2.0
CREATION_DATE  = 
ORIGINATOR     = 

OBJECT_NAME    = AJISAI (EGS)
OBJECT_ID      = 1986-061A
CENTER_NAME    = EARTH
REF_FRAME      = TEME
TIME_SYSTEM    = UTC
MEAN_ELEMENT_THEORY = SGP/SGP4

EPOCH          = 2026-03-08T02:28:59.449440
MEAN_MOTION    = 12.44515683
ECCENTRICITY   = .0011262
INCLINATION    = 50.0080
RA_OF_ASC_NODE = 98.2256
ARG_OF_PERICENTER = 282.9167
MEAN_ANOMALY   = 120.0189

EPHEMERIS_TYPE = 0
CLASSIFICATION_TYPE = U
NORAD_CAT_ID   = 16908
ELEMENT_SET_NO = 999
REV_AT_EPOCH   = 46780
BSTAR          = .52532E-4
MEAN_MOTION_DOT = -.9E-6
MEAN_MOTION_DDOT = 0

CCSDS_OMM_VERS = 2.0
CREATION_DATE  = 
ORIGINATOR     = 

OBJECT_NAME    = SL-14 R/B
OBJECT_ID      = 1987-024B
CENTER_NAME    = EARTH
REF_FRAME      = TEME
TIME_SYSTEM    = UTC
MEAN_ELEMENT_THEORY = SGP/SGP4

EPOCH          = 2026-03-08T03:46:41.331648
MEAN_MOTION    = 14.86130589
ECCENTRICITY   = .0016686
INCLINATION    = 82.5249
RA_OF_ASC_NODE = 94.2044
ARG_OF_PERICENTER = 265.5236
MEAN_ANOMALY   = 94.4074

EPHEMERIS_TYPE = 0
CLASSIFICATION_TYPE = U
NORAD_CAT_ID   = 17567
ELEMENT_SET_NO = 999
REV_AT_EPOCH   = 8790
BSTAR          = .67737E-4
MEAN_MOTION_DOT = .619E-5
MEAN_MOTION_DDOT = 0

CCSDS_OMM_VERS = 2.0
CREATION_DATE  = 
ORIGINATOR     = 

OBJECT_NAME    = COSMOS 1833
OBJECT_ID      = 1987-027A
CENTER_NAME    = EARTH
REF_FRAME      = TEME
TIME_SYSTEM    = UTC
MEAN_ELEMENT_THEORY = SGP/SGP4

EPOCH          = 2026-03-08T03:52:18.525792
MEAN_MOTION    = 14.13055218
ECCENTRICITY   = .0024344
INCLINATION    = 70.9228
RA_OF_ASC_NODE = 329.2309
ARG_OF_PERICENTER = 216.6739
MEAN_ANOMALY   = 143.2717

EPHEMERIS_TYPE = 0
CLASSIFICATION_TYPE = U
NORAD_CAT_ID   = 17589
ELEMENT_SET_NO = 999
REV_AT_EPOCH   = 1010
BSTAR          = -.56195E-4
MEAN_MOTION_DOT = -.153E-5
MEAN_MOTION_DDOT = 0

CCSDS_OMM_VERS = 2.0
CREATION_DATE  = 
ORIGINATOR     = 

OBJECT_NAME    = SL-16 R/B
OBJECT_ID      = 1987-027B
CENTER_NAME    = EARTH
REF_FRAME      = TEME
TIME_SYSTEM    = UTC
MEAN_ELEMENT_THEORY = SGP/SGP4

EPOCH          = 2026-03-07T23:57:29.499840
MEAN_MOTION    = 14.17165820
ECCENTRICITY   = .000353
INCLINATION    = 71.0011
RA_OF_ASC_NODE = 280.0598
ARG_OF_PERICENTER = 146.3606
MEAN_ANOMALY   = 213.7743

EPHEMERIS_TYPE = 0
CLASSIFICATION_TYPE = U
NORAD_CAT_ID   = 17590
ELEMENT_SET_NO = 999
REV_AT_EPOCH   = 1510
BSTAR          = .21012E-4
MEAN_MOTION_DOT = -.6E-7
MEAN_MOTION_DDOT = 0

CCSDS_OMM_VERS = 2.0
CREATION_DATE  = 
ORIGINATOR     = 

OBJECT_NAME    = SL-14 R/B
OBJECT_ID      = 1987-038B
CENTER_NAME    = EARTH
REF_FRAME      = TEME
TIME_SYSTEM    = UTC
MEAN_ELEMENT_THEORY = SGP/SGP4

EPOCH          = 2026-03-08T03:38:19.008096
MEAN_MOTION    = 14.85367987
ECCENTRICITY   = .0019546
INCLINATION    = 82.5003
RA_OF_ASC_NODE = 298.2570
ARG_OF_PERICENTER = 165.4100
MEAN_ANOMALY   = 194.7685

EPHEMERIS_TYPE = 0
CLASSIFICATION_TYPE = U
NORAD_CAT_ID   = 17912
ELEMENT_SET_NO = 999
REV_AT_EPOCH   = 7900
BSTAR          = .64695E-4
MEAN_MOTION_DOT = .583E-5
MEAN_MOTION_DDOT = 0

CCSDS_OMM_VERS = 2.0
CREATION_DATE  = 
ORIGINATOR     = 

OBJECT_NAME    = COSMOS 1844
OBJECT_ID      = 1987-041A
CENTER_NAME    = EARTH
REF_FRAME      = TEME
TIME_SYSTEM    = UTC
MEAN_ELEMENT_THEORY = SGP/SGP4

EPOCH          = 2026-03-08T03:03:27.854208
MEAN_MOTION    = 14.14552624
ECCENTRICITY   = .0029912
INCLINATION    = 70.8998
RA_OF_ASC_NODE = 37.4699
ARG_OF_PERICENTER = 20.1068
MEAN_ANOMALY   = 340.1224

EPHEMERIS_TYPE = 0
CLASSIFICATION_TYPE = U
NORAD_CAT_ID   = 17973
ELEMENT_SET_NO = 999
REV_AT_EPOCH   = 336
BSTAR          = -.43384E-4
MEAN_MOTION_DOT = -.132E-5
MEAN_MOTION_DDOT = 0

CCSDS_OMM_VERS = 2.0
CREATION_DATE  = 
ORIGINATOR     = 

OBJECT_NAME    = SL-14 R/B
OBJECT_ID      = 1987-055B
CENTER_NAME    = EARTH
REF_FRAME      = TEME
TIME_SYSTEM    = UTC
MEAN_ELEMENT_THEORY = SGP/SGP4

EPOCH          = 2026-03-07T20:37:32.058048
MEAN_MOTION    = 14.85627282
ECCENTRICITY   = .00213115
INCLINATION    = 82.5030
RA_OF_ASC_NODE = 350.7558
ARG_OF_PERICENTER = 23.7418
MEAN_ANOMALY   = 336.4776

EPHEMERIS_TYPE = 0
CLASSIFICATION_TYPE = U
NORAD_CAT_ID   = 18153
ELEMENT_SET_NO = 999
REV_AT_EPOCH   = 6966
BSTAR          = .92000599E-4
MEAN_MOTION_DOT = .824E-5
MEAN_MOTION_DDOT = 0

CCSDS_OMM_VERS = 2.0
CREATION_DATE  = 
ORIGINATOR     = 

OBJECT_NAME    = COSMOS 1867
OBJECT_ID      = 1987-060A
CENTER_NAME    = EARTH
REF_FRAME      = TEME
TIME_SYSTEM    = UTC
MEAN_ELEMENT_THEORY = SGP/SGP4

EPOCH          = 2026-03-08T01:03:25.060320
MEAN_MOTION    = 14.31502786
ECCENTRICITY   = .0014467
INCLINATION    = 65.0115
RA_OF_ASC_NODE = 311.3142
ARG_OF_PERICENTER = 278.5545
MEAN_ANOMALY   = 81.3900

EPHEMERIS_TYPE = 0
CLASSIFICATION_TYPE = U
NORAD_CAT_ID   = 18187
ELEMENT_SET_NO = 999
REV_AT_EPOCH   = 1970
BSTAR          = .3625E-4
MEAN_MOTION_DOT = -.4E-7
MEAN_MOTION_DDOT = 0

CCSDS_OMM_VERS = 2.0
CREATION_DATE  = 
ORIGINATOR     = 

OBJECT_NAME    = SL-14 R/B
OBJECT_ID      = 1988-001B
CENTER_NAME    = EARTH
REF_FRAME      = TEME
TIME_SYSTEM    = UTC
MEAN_ELEMENT_THEORY = SGP/SGP4

EPOCH          = 2026-03-07T18:53:35.359584
MEAN_MOTION    = 14.85525401
ECCENTRICITY   = .00167404
INCLINATION    = 82.5150
RA_OF_ASC_NODE = 197.1489
ARG_OF_PERICENTER = 242.4821
MEAN_ANOMALY   = 117.4694

EPHEMERIS_TYPE = 0
CLASSIFICATION_TYPE = U
NORAD_CAT_ID   = 18749
ELEMENT_SET_NO = 999
REV_AT_EPOCH   = 4174
BSTAR          = .94876568E-4
MEAN_MOTION_DOT = .845E-5
MEAN_MOTION_DDOT = 0

CCSDS_OMM_VERS = 2.0
CREATION_DATE  = 
ORIGINATOR     = 

OBJECT_NAME    = COSMOS 1933
OBJECT_ID      = 1988-020A
CENTER_NAME    = EARTH
REF_FRAME      = TEME
TIME_SYSTEM    = UTC
MEAN_ELEMENT_THEORY = SGP/SGP4

EPOCH          = 2026-03-08T00:14:49.595136
MEAN_MOTION    = 15.17964581
ECCENTRICITY   = .0003692
INCLINATION    = 82.5096
RA_OF_ASC_NODE = 252.5735
ARG_OF_PERICENTER = 186.9615
MEAN_ANOMALY   = 173.1569

EPHEMERIS_TYPE = 0
CLASSIFICATION_TYPE = U
NORAD_CAT_ID   = 18958
ELEMENT_SET_NO = 999
REV_AT_EPOCH   = 4997
BSTAR          = .3016E-3
MEAN_MOTION_DOT = .6155E-4
MEAN_MOTION_DDOT = 0

